{"type": "FeatureCollection", "features": [ {"type": "Feature", "properties": {"norad_id": 33841, "name": "COSMOS 2251 DEB", "group": "cosmos-2251-debris", "lat": -16.3537872397316, "lon": -103.27261160031485, "alt_km": 755.1010766404688, "timestamp": "2025-12-21T16:47:55.131738+00:00", "meta": {"OBJECT_NAME": "COSMOS 2251 DEB", "OBJECT_ID": "1993-036CJ", "EPOCH": "2025-12-21T12:41:28.292352", "MEAN_MOTION": 14.37872306, "ECCENTRICITY": 0.0020896, "INCLINATION": 74.0377, "RA_OF_ASC_NODE": 261.8602, "ARG_OF_PERICENTER": 340.5917, "MEAN_ANOMALY": 196.9374, "EPHEMERIS_TYPE": 0, "CLASSIFICATION_TYPE": "U", "NORAD_CAT_ID": 33841, "ELEMENT_SET_NO": 999, "REV_AT_EPOCH": 88240, "BSTAR": 0.00017641, "MEAN_MOTION_DOT": 5.07e-06, "MEAN_MOTION_DDOT": 0}, "tle": {"line1": "1 33841U 93036CJ  25355.52879968  .00000507  00000+0  17641-3 0  9997", "line2": "2 33841  74.0377 261.8602 0020896 340.5917 196.9374 14.37872306882400"}}, "geometry": {"type": "Point", "coordinates": [-103.27261160031485, -16.3537872397316]}}, {"type": "Feature", "properties": {"norad_id": 33842, "name": "COSMOS 2251 DEB", "group": "cosmos-2251-debris", "lat": 32.71503379776464, "lon": -146.38082426359162, "alt_km": 744.5616835732753, "timestamp": "2025-12-21T16:47:55.131748+00:00", "meta": {"OBJECT_NAME": "COSMOS 2251 DEB", "OBJECT_ID": "1993-036CK", "EPOCH": "2025-12-20T23:59:56.953536", "MEAN_MOTION": 14.42711995, "ECCENTRICITY": 0.0047506, "INCLINATION": 74.0318, "RA_OF_ASC_NODE": 204.3195, "ARG_OF_PERICENTER": 310.0049, "MEAN_ANOMALY": 49.6942, "EPHEMERIS_TYPE": 0, "CLASSIFICATION_TYPE": "U", "NORAD_CAT_ID": 33842, "ELEMENT_SET_NO": 999, "REV_AT_EPOCH": 88456, "BSTAR": 0.00019017886, "MEAN_MOTION_DOT": 6.14e-06, "MEAN_MOTION_DDOT": 0}, "tle": {"line1": "1 33842U 93036CK  25354.99996474  .00000614  00000+0  19018-3 0  9999", "line2": "2 33842  74.0318 204.3195 0047506 310.0049  49.6942 14.42711995884566"}}, "geometry": {"type": "Point", "coordinates": [-146.38082426359162, 32.71503379776464]}}, {"type": "Feature", "properties": {"norad_id": 33844, "name": "COSMOS 2251 DEB", "group": "cosmos-2251-debris", "lat": 33.056987543719806, "lon": 47.135389614053324, "alt_km": 745.3549783563612, "timestamp": "2025-12-21T16:47:55.131758+00:00", "meta": {"OBJECT_NAME": "COSMOS 2251 DEB", "OBJECT_ID": "1993-036CM", "EPOCH": "2025-12-21T09:59:44.729088", "MEAN_MOTION": 14.3373237, "ECCENTRICITY": 0.0047114, "INCLINATION": 74.0666, "RA_OF_ASC_NODE": 36.9378, "ARG_OF_PERICENTER": 56.0752, "MEAN_ANOMALY": 316.3274, "EPHEMERIS_TYPE": 0, "CLASSIFICATION_TYPE": "U", "NORAD_CAT_ID": 33844, "ELEMENT_SET_NO": 999, "REV_AT_EPOCH": 87850, "BSTAR": 0.00027971, "MEAN_MOTION_DOT": 7.61e-06, "MEAN_MOTION_DDOT": 0}, "tle": {"line1": "1 33844U 93036CM  25355.41648992  .00000761  00000+0  27971-3 0  9998", "line2": "2 33844  74.0666  36.9378 0047114  56.0752 316.3274 14.33732370878508"}}, "geometry": {"type": "Point", "coordinates": [47.135389614053324, 33.056987543719806]}}, {"type": "Feature", "properties": {"norad_id": 33848, "name": "COSMOS 2251 DEB", "group": "cosmos-2251-debris", "lat": -8.189213190842578, "lon": 163.3319134714438, "alt_km": 775.2608239243618, "timestamp": "2025-12-21T16:47:55.131768+00:00", "meta": {"OBJECT_NAME": "COSMOS 2251 DEB", "OBJECT_ID": "1993-036CR", "EPOCH": "2025-12-21T09:58:29.339904", "MEAN_MOTION": 14.44115649, "ECCENTRICITY": 0.0041649, "INCLINATION": 74.0316, "RA_OF_ASC_NODE": 341.4991, "ARG_OF_PERICENTER": 34.7179, "MEAN_ANOMALY": 115.9169, "EPHEMERIS_TYPE": 0, "CLASSIFICATION_TYPE": "U", "NORAD_CAT_ID": 33848, "ELEMENT_SET_NO": 999, "REV_AT_EPOCH": 87956, "BSTAR": 0.00085764, "MEAN_MOTION_DOT": 2.944e-05, "MEAN_MOTION_DDOT": 0}, "tle": {"line1": "1 33848U 93036CR  25355.41561736  .00002944  00000+0  85764-3 0  9991", "line2": "2 33848  74.0316 341.4991 0041649  34.7179 115.9169 14.44115649879561"}}, "geometry": {"type": "Point", "coordinates": [163.3319134714438, -8.189213190842578]}}, {"type": "Feature", "properties": {"norad_id": 33892, "name": "COSMOS 2251 DEB", "group": "cosmos-2251-debris", "lat": 13.782991050281778, "lon": -98.37673376917493, "alt_km": 762.494742245417, "timestamp": "2025-12-21T16:47:55.131779+00:00", "meta": {"OBJECT_NAME": "COSMOS 2251 DEB", "OBJECT_ID": "1993-036CV", "EPOCH": "2025-12-21T12:45:51.992064", "MEAN_MOTION": 14.23365779, "ECCENTRICITY": 0.0112331, "INCLINATION": 73.8026, "RA_OF_ASC_NODE": 86.0186, "ARG_OF_PERICENTER": 115.5392, "MEAN_ANOMALY": 268.0153, "EPHEMERIS_TYPE": 0, "CLASSIFICATION_TYPE": "U", "NORAD_CAT_ID": 33892, "ELEMENT_SET_NO": 999, "REV_AT_EPOCH": 87080, "BSTAR": 0.00050299, "MEAN_MOTION_DOT": 1.191e-05, "MEAN_MOTION_DDOT": 0}, "tle": {"line1": "1 33892U 93036CV  25355.53185176  .00001191  00000+0  50299-3 0  9991", "line2": "2 33892  73.8026  86.0186 0112331 115.5392 268.0153 14.23365779870804"}}, "geometry": {"type": "Point", "coordinates": [-98.37673376917493, 13.782991050281778]}}, {"type": "Feature", "properties": {"norad_id": 33894, "name": "COSMOS 2251 DEB", "group": "cosmos-2251-debris", "lat": 30.17303070495645, "lon": -15.034744782447929, "alt_km": 1492.150267344694, "timestamp": "2025-12-21T16:47:55.131790+00:00", "meta": {"OBJECT_NAME": "COSMOS 2251 DEB", "OBJECT_ID": "1993-036CX", "EPOCH": "2025-12-21T07:32:41.585280", "MEAN_MOTION": 13.213219, "ECCENTRICITY": 0.0578995, "INCLINATION": 73.7662, "RA_OF_ASC_NODE": 335.8099, "ARG_OF_PERICENTER": 254.1002, "MEAN_ANOMALY": 99.5573, "EPHEMERIS_TYPE": 0, "CLASSIFICATION_TYPE": "U", "NORAD_CAT_ID": 33894, "ELEMENT_SET_NO": 999, "REV_AT_EPOCH": 80821, "BSTAR": 0.00072459, "MEAN_MOTION_DOT": 6.97e-06, "MEAN_MOTION_DDOT": 0}, "tle": {"line1": "1 33894U 93036CX  25355.31437020  .00000697  00000+0  72459-3 0  9999", "line2": "2 33894  73.7662 335.8099 0578995 254.1002  99.5573 13.21321900808213"}}, "geometry": {"type": "Point", "coordinates": [-15.034744782447929, 30.17303070495645]}}, {"type": "Feature", "properties": {"norad_id": 33896, "name": "COSMOS 2251 DEB", "group": "cosmos-2251-debris", "lat": 72.75319177040342, "lon": -109.38165636818748, "alt_km": 892.0154727979789, "timestamp": "2025-12-21T16:47:55.131814+00:00", "meta": {"OBJECT_NAME": "COSMOS 2251 DEB", "OBJECT_ID": "1993-036CZ", "EPOCH": "2025-12-21T11:32:16.025856", "MEAN_MOTION": 14.19056945, "ECCENTRICITY": 0.0126913, "INCLINATION": 73.7664, "RA_OF_ASC_NODE": 140.8139, "ARG_OF_PERICENTER": 315.1058, "MEAN_ANOMALY": 100.4569, "EPHEMERIS_TYPE": 0, "CLASSIFICATION_TYPE": "U", "NORAD_CAT_ID": 33896, "ELEMENT_SET_NO": 999, "REV_AT_EPOCH": 86864, "BSTAR": 0.00037118, "MEAN_MOTION_DOT": 8.12e-06, "MEAN_MOTION_DDOT": 0}, "tle": {"line1": "1 33896U 93036CZ  25355.48074104  .00000812  00000+0  37118-3 0  9991", "line2": "2 33896  73.7664 140.8139 0126913 315.1058 100.4569 14.19056945868646"}}, "geometry": {"type": "Point", "coordinates": [-109.38165636818748, 72.75319177040342]}}, {"type": "Feature", "properties": {"norad_id": 33899, "name": "COSMOS 2251 DEB", "group": "cosmos-2251-debris", "lat": 31.355391365404707, "lon": 78.64604094631046, "alt_km": 690.8692195254307, "timestamp": "2025-12-21T16:47:55.131826+00:00", "meta": {"OBJECT_NAME": "COSMOS 2251 DEB", "OBJECT_ID": "1993-036DC", "EPOCH": "2025-12-20T14:55:27.834816", "MEAN_MOTION": 14.61252113, "ECCENTRICITY": 0.0056245, "INCLINATION": 74.0542, "RA_OF_ASC_NODE": 70.6713, "ARG_OF_PERICENTER": 131.0681, "MEAN_ANOMALY": 353.4365, "EPHEMERIS_TYPE": 0, "CLASSIFICATION_TYPE": "U", "NORAD_CAT_ID": 33899, "ELEMENT_SET_NO": 999, "REV_AT_EPOCH": 88954, "BSTAR": 0.00057159, "MEAN_MOTION_DOT": 2.854e-05, "MEAN_MOTION_DDOT": 0}, "tle": {"line1": "1 33899U 93036DC  25354.62184994  .00002854  00000+0  57159-3 0  9993", "line2": "2 33899  74.0542  70.6713 0056245 131.0681 353.4365 14.61252113889541"}}, "geometry": {"type": "Point", "coordinates": [78.64604094631046, 31.355391365404707]}}, {"type": "Feature", "properties": {"norad_id": 33900, "name": "COSMOS 2251 DEB", "group": "cosmos-2251-debris", "lat": -22.78295178705329, "lon": -24.123036191123468, "alt_km": 733.4909060117898, "timestamp": "2025-12-21T16:47:55.131836+00:00", "meta": {"OBJECT_NAME": "COSMOS 2251 DEB", "OBJECT_ID": "1993-036DD", "EPOCH": "2025-12-21T12:36:15.253920", "MEAN_MOTION": 14.58375218, "ECCENTRICITY": 0.0046458, "INCLINATION": 74.0183, "RA_OF_ASC_NODE": 343.1233, "ARG_OF_PERICENTER": 132.6667, "MEAN_ANOMALY": 6.729, "EPHEMERIS_TYPE": 0, "CLASSIFICATION_TYPE": "U", "NORAD_CAT_ID": 33900, "ELEMENT_SET_NO": 999, "REV_AT_EPOCH": 89164, "BSTAR": 0.00029401, "MEAN_MOTION_DOT": 1.352e-05, "MEAN_MOTION_DDOT": 0}, "tle": {"line1": "1 33900U 93036DD  25355.52517655  .00001352  00000+0  29401-3 0  9991", "line2": "2 33900  74.0183 343.1233 0046458 132.6667   6.7290 14.58375218891643"}}, "geometry": {"type": "Point", "coordinates": [-24.123036191123468, -22.78295178705329]}}, {"type": "Feature", "properties": {"norad_id": 33901, "name": "COSMOS 2251 DEB", "group": "cosmos-2251-debris", "lat": 26.741427869830673, "lon": 38.75526447592035, "alt_km": 528.45851731537, "timestamp": "2025-12-21T16:47:55.131847+00:00", "meta": {"OBJECT_NAME": "COSMOS 2251 DEB", "OBJECT_ID": "1993-036DE", "EPOCH": "2025-12-21T11:55:34.772736", "MEAN_MOTION": 15.16779014, "ECCENTRICITY": 0.0030149, "INCLINATION": 73.7745, "RA_OF_ASC_NODE": 30.7479, "ARG_OF_PERICENTER": 161.901, "MEAN_ANOMALY": 198.3266, "EPHEMERIS_TYPE": 0, "CLASSIFICATION_TYPE": "U", "NORAD_CAT_ID": 33901, "ELEMENT_SET_NO": 999, "REV_AT_EPOCH": 89646, "BSTAR": 0.0020735, "MEAN_MOTION_DOT": 0.00041396, "MEAN_MOTION_DDOT": 0}, "tle": {"line1": "1 33901U 93036DE  25355.49693024  .00041396  00000+0  20735-2 0  9995", "line2": "2 33901  73.7745  30.7479 0030149 161.9010 198.3266 15.16779014896465"}}, "geometry": {"type": "Point", "coordinates": [38.75526447592035, 26.741427869830673]}}]}